FENGYUN 1C DEB          
1 38163U 99025ERL 24353.31253643  .00002282  00000+0  14158-2 0  9994
2 38163  99.1621  20.7679 0077937 160.3047 200.1158 14.04651564816677
FENGYUN 1C DEB          
1 38166U 99025ERP 24366.18088916  .00015796  00000+0  67659-2 0  9993
2 38166  99.0821  89.8552 0059411 321.7684  37.9287 14.23964772588274
FENGYUN 1C DEB          
1 38169U 99025ERS 24362.57901382  .00027602  00000+0  60173-2 0  9999
2 38169  98.9399 299.3674 0034819  64.4273 296.0516 14.57453818777722
FENGYUN 1C DEB          
1 38173U 99025ERW 24366.42499769  .00010444  00000+0  32141-2 0  9993
2 38173  99.0329 245.0571 0172967  47.2258 314.3327 14.33408111556757
FENGYUN 1C DEB          
1 38491U 99025ESA 24365.76504404  .00002861  00000+0  17244-2 0  9996
2 38491  98.9418  15.8522 0227069 261.3126  96.2256 13.95496468616194
FENGYUN 1C DEB          
1 38492U 99025ESB 24364.52329095  .00009239  00000+0  61878-2 0  9999
2 38492  98.6108  95.1529 0239325  30.3235 331.1525 13.88095787706662
FENGYUN 1C DEB          
1 38493U 99025ESC 24366.16340756  .00001554  00000+0  11164-2 0  9994
2 38493  99.0325 343.2379 0430343  64.9972 299.5222 13.61657922517806
FENGYUN 1C DEB          
1 38494U 99025ESD 24366.39136308  .00020571  00000+0  80283-2 0  9994
2 38494  98.4195 338.6688 0410602 260.0549  95.4047 13.92143871 23202
FENGYUN 1C DEB          
1 38496U 99025ESF 24366.81090751  .00004811  00000+0  27436-2 0  9994
2 38496  98.7754  19.5505 0079088 263.6531  95.5627 14.08580134761489
FENGYUN 1C DEB          
1 38498U 99025ESH 24363.86021350  .00001664  00000+0  29091-2 0  9999
2 38498  99.7287  55.6898 0560912 144.3488 219.6467 12.95849530492233
FENGYUN 1C DEB          
1 38503U 99025ESN 24365.39901499  .00180162  00000+0  84225-2 0  9998
2 38503  99.4560 239.3367 0035245 238.7131 121.0643 15.18412938586391
FENGYUN 1C DEB          
1 38512U 99025ESX 24366.56139135  .00006550  00000+0  59277-2 0  9995
2 38512  98.3971 284.5071 0231185 317.9106  40.4487 13.72612591130257
FENGYUN 1C DEB          
1 38513U 99025ESY 24363.51647872  .00048901  00000+0  51566-2 0  9999
2 38513  97.6443 280.9000 0294490 289.6241  67.3397 14.62208657895462
FENGYUN 1C DEB          
1 38514U 99025ESZ 24364.88206835  .00031431  00000+0  13374-1 0  9995
2 38514  98.0477  64.5880 0310572 298.4015  58.6172 14.02298248858073
FENGYUN 1C DEB          
1 38516U 99025ETB 24365.79007583  .00001309  00000+0  45481-3 0  9994
2 38516  98.4102 352.5473 0112618  76.7379 284.6337 14.33577565799011
FENGYUN 1C DEB          
1 38717U 99025ETJ 24365.76538047  .00012851  00000+0  63354-2 0  9990
2 38717  99.1630   3.6042 0060311 257.9439 276.0657 14.16656692535070
FENGYUN 1C DEB          
1 38722U 99025ETP 24364.87747083  .00023846  00000+0  55119-2 0  9995
2 38722  99.3693  57.4287 0178191  50.4973 311.1818 14.45842404654151
FENGYUN 1C DEB          
1 38724U 99025ETR 24365.48819590  .00020979  00000+0  11400-1 0  9996
2 38724  98.7502  17.1968 0135533 337.6091  21.9197 14.07699363517255
FENGYUN 1C DEB          
1 38725U 99025ETS 24365.26298221  .00021530  00000+0  74541-2 0  9995
2 38725  98.8575 112.8633 0039335 206.0515 153.8691 14.35219072718165
FENGYUN 1C DEB          
1 38726U 99025ETT 24366.65158097  .00057856  00000+0  11042-1 0  9992
2 38726  99.1523 336.1389 0043377 140.7029 219.7331 14.63050895647326
FENGYUN 1C DEB          
1 38728U 99025ETV 24365.08607514  .00023471  00000+0  43448-2 0  9995
2 38728  99.2299 302.2856 0086479  38.7402 332.9594 14.62909731605136
FENGYUN 1C DEB          
1 38789U 99025EUD 24364.89972264  .00009503  00000+0  21666-2 0  9995
2 38789  98.9002 229.3474 0215986 343.8615  26.4427 14.42662883749433
FENGYUN 1C DEB          
1 38793U 99025EUH 24360.65683764  .00348789  00000+0  13822-1 0  9990
2 38793  98.6456 158.3762 0034454 253.3022 106.4428 15.23337569572990
FENGYUN 1C DEB          
1 38797U 99025EUM 24366.93793153  .00001576  00000+0  17347-2 0  9992
2 38797  99.5135 262.9223 0246744  23.4760 337.7421 13.61300382545775
FENGYUN 1C DEB          
1 38799U 99025EUP 24364.92197827  .00011435  00000+0  27924-2 0  9994
2 38799  98.4358  76.4070 0176483 325.6593  33.3289 14.43720903745187
FENGYUN 1C DEB          
1 38801U 99025EUR 24363.94546491  .00005881  00000+0  13970-2 0  9998
2 38801  98.4205  63.4910 0355872 294.3673 242.9548 14.22132398768838
FENGYUN 1C DEB          
1 38803U 99025EUT 24364.42299516  .00013681  00000+0  64162-2 0  9993
2 38803  99.1260 350.1784 0069533 310.8288  48.6870 14.18953258805197
FENGYUN 1C DEB          
1 38809U 99025EUZ 24364.27337676  .00003296  00000+0  12992-2 0  9997
2 38809  98.6056  19.3779 0226668 251.9675 105.6685 14.16755640642692
FENGYUN 1C DEB          
1 38813U 99025EVD 24365.69163493  .00004257  00000+0  20631-2 0  9990
2 38813  99.3192 338.1988 0006879  22.4944 337.6530 14.18967948433265
FENGYUN 1C DEB          
1 38818U 99025EVJ 24364.93315866  .00003609  00000+0  11513-2 0  9993
2 38818  98.3442  65.6380 0090259  64.6712 108.5951 14.37998806648472
FENGYUN 1C DEB          
1 38819U 99025EVK 24365.77737969  .00002667  00000+0  12709-2 0  9990
2 38819  98.6013   2.4945 0081994 115.5361  57.1128 14.18340220585574
FENGYUN 1C DEB          
1 38824U 99025EVQ 24354.77349461  .00007370  00000+0  40897-2 0  9995
2 38824  99.2918 109.5122 0102514 122.4545 238.6586 14.08815999640867
FENGYUN 1C DEB          
1 38827U 99025EVT 24366.31101419  .00008924  00000+0  26408-2 0  9998
2 38827  98.4187  33.9985 0224207 259.7952  97.7879 14.30053138561030
FENGYUN 1C DEB          
1 38829U 99025EVV 24363.34337415  .00002501  00000+0  14790-2 0  9993
2 38829  98.7719  23.1577 0040942 296.4699  63.2274 14.08211391592136
FENGYUN 1C DEB          
1 38832U 99025EVY 24359.37140298  .00003749  00000+0  23739-2 0  9994
2 38832  99.2990  30.4491 0086477 294.7123  64.5058 14.02796064588003
FENGYUN 1C DEB          
1 39537U 99025EWE 24365.67302576  .00008897  00000+0  73253-2 0  9991
2 39537  99.1352 154.9874 0182129 190.7751 168.9478 13.82004520544583
FENGYUN 1C DEB          
1 39541U 99025EWJ 24364.85958413  .00003383  00000+0  15971-2 0  9990
2 39541  98.7181  46.9586 0072131 355.5073   4.5447 14.19084777566311
FENGYUN 1C DEB          
1 39543U 99025EWL 24365.39276980  .00003291  00000+0  25692-2 0  9993
2 39543  99.0806  48.9613 0340738 334.3938  24.0668 13.68999810444302
FENGYUN 1C DEB          
1 39544U 99025EWM 24366.47583260  .00002305  00000+0  14429-2 0  9997
2 39544  98.7836 251.2317 0053888 261.0610  98.4455 14.04874839519926
FENGYUN 1C DEB          
1 40688U 99025EWU 24362.16414054  .00001268  00000+0  11031-2 0  9997
2 40688  98.9285 162.4437 0142549 255.2673 103.2648 13.83320856250696
FENGYUN 1C DEB          
1 40689U 99025EWV 24366.57135682  .00005589  00000+0  51310-2 0  9998
2 40689  99.1182 299.3349 0315470 280.3804  76.1929 13.63112783501648
FENGYUN 1C DEB          
1 40690U 99025EWW 24363.32701141  .00001220  00000+0  90562-3 0  9990
2 40690  99.4577  23.8922 0093607  12.3818 347.9612 13.95125017565020
FENGYUN 1C DEB          
1 40691U 99025EWX 24366.36281360  .00000534  00000+0  43948-3 0  9997
2 40691  99.0996  41.0037 0129601 169.3799 191.0144 13.89736983506246
FENGYUN 1C DEB          
1 40695U 99025EXB 24365.00142114  .00004048  00000+0  64118-3 0  9990
2 40695  99.4299  75.8412 0286714 283.9204  73.0253 14.49063641268263
FENGYUN 1C DEB          
1 40696U 99025EXC 24359.73947250  .00000359  00000+0  28390-3 0  9991
2 40696  98.9288 350.3110 0079351 248.3406 110.9292 13.96469952507523
FENGYUN 1C DEB          
1 41003U 99025EXH 24366.49370548  .00040171  00000+0  86366-2 0  9997
2 41003  98.9828 248.9466 0096251 274.7263  84.2945 14.55489167473542
FENGYUN 1C DEB          
1 41006U 99025EXL 24366.56530190  .00009728  00000+0  78601-2 0  9995
2 41006 102.3655 123.1541 0192437 109.2317 252.9755 13.82317994527007
FENGYUN 1C DEB          
1 41008U 99025EXN 24365.71524249  .00002403  00000+0  14050-2 0  9992
2 41008  99.2699 167.5625 0506841 329.2810  27.9542 13.59661749517261
FENGYUN 1C DEB          
1 41011U 99025EXR 24366.29724514  .00011791  00000+0  20649-2 0  9998
2 41011  99.2019  18.6623 0321347 298.7620  58.1635 14.39437218521669
FENGYUN 1C DEB          
1 41018U 99025EXY 24366.06028388  .00003520  00000+0  41014-2 0  9996
2 41018  99.9273 304.0839 0308261 259.1079  97.5231 13.51005655834918
FENGYUN 1C DEB          
1 41822U 99025EXZ 24365.90634679  .00009982  00000+0  44933-2 0  9998
2 41822  98.7570  68.3879 0058295 146.0678 214.4250 14.21545933424394
FENGYUN 1C DEB          
1 41823U 99025EYA 24365.82646936  .00009575  00000+0  43965-2 0  9991
2 41823  98.7482  66.4558 0057743 151.8282 208.6039 14.20538587424275
FENGYUN 1C DEB          
1 41824U 99025EYB 24365.70373185  .00009626  00000+0  43756-2 0  9997
2 41824  98.7568  66.3731 0060350 152.2790 208.1625 14.20982524424258
FENGYUN 1C DEB          
1 41825U 99025EYC 24364.67172013  .00009780  00000+0  43855-2 0  9991
2 41825  98.7668  69.4612 0058884 149.5338 210.9282 14.21734368423967
FENGYUN 1C DEB          
1 41826U 99025EYD 24364.46109977  .00007946  00000+0  36357-2 0  9999
2 41826  98.7592  66.9984 0058710 151.4101 209.0316 14.20751082424099
FENGYUN 1C DEB          
1 41827U 99025EYE 24365.72736228  .00009904  00000+0  44252-2 0  9994
2 41827  98.7658  70.5905 0058313 139.8943 220.6560 14.21931827423930
FENGYUN 1C DEB          
1 41828U 99025EYF 24366.74535104  .00033857  00000+0  11042-1 0  9992
2 41828  98.9230 111.5321 0047489 127.0582 233.4961 14.37850360424675
FENGYUN 1C DEB          
1 41829U 99025EYG 24366.65046622  .00009752  00000+0  43652-2 0  9995
2 41829  98.7667  71.5125 0059152 142.8905 217.6384 14.21813870423837
FENGYUN 1C DEB          
1 41830U 99025EYH 24364.43538758  .00009540  00000+0  41973-2 0  9996
2 41830  98.7756  71.1239 0057991 148.1195 212.3513 14.22752040423141
